{"type": "FeatureCollection", "features": [ {"type": "Feature", "properties": {"norad_id": 66649, "name": "COSMOS 2599 (RODNIK-S 24)", "group": "last-30-days", "lat": -27.17293249079853, "lon": 116.7248244147291, "alt_km": 1507.9738165519539, "timestamp": "2025-12-02T10:50:46.053971+00:00", "meta": {"OBJECT_NAME": "COSMOS 2599 (RODNIK-S 24)", "OBJECT_ID": "2025-273C", "EPOCH": "2025-12-02T03:55:50.791584", "MEAN_MOTION": 12.4167177, "ECCENTRICITY": 0.0008404, "INCLINATION": 82.5022, "RA_OF_ASC_NODE": 293.0275, "ARG_OF_PERICENTER": 324.1299, "MEAN_ANOMALY": 35.9215, "EPHEMERIS_TYPE": 0, "CLASSIFICATION_TYPE": "U", "NORAD_CAT_ID": 66649, "ELEMENT_SET_NO": 999, "REV_AT_EPOCH": 82, "BSTAR": -0.00015539, "MEAN_MOTION_DOT": -1.1e-07, "MEAN_MOTION_DDOT": 0}, "tle": {"line1": "1 66649U 25273C   25336.16378231 -.00000011  00000+0 -15539-3 0  9999", "line2": "2 66649  82.5022 293.0275 0008404 324.1299  35.9215 12.41671770   827"}}, "geometry": {"type": "Point", "coordinates": [116.7248244147291, -27.17293249079853]}}, {"type": "Feature", "properties": {"norad_id": 66650, "name": "2025-274A", "group": "last-30-days", "lat": 18.14322071214901, "lon": 86.38317871151058, "alt_km": 598.0036679706509, "timestamp": "2025-12-02T10:50:46.053981+00:00", "meta": {"OBJECT_NAME": "2025-274A", "OBJECT_ID": "2025-274A", "EPOCH": "2025-12-02T00:27:47.322144", "MEAN_MOTION": 14.91599451, "ECCENTRICITY": 0.0010478, "INCLINATION": 97.7378, "RA_OF_ASC_NODE": 263.405, "ARG_OF_PERICENTER": 292.6464, "MEAN_ANOMALY": 67.3646, "EPHEMERIS_TYPE": 0, "CLASSIFICATION_TYPE": "U", "NORAD_CAT_ID": 66650, "ELEMENT_SET_NO": 999, "REV_AT_EPOCH": 80, "BSTAR": 0.00026444, "MEAN_MOTION_DOT": 2.6e-05, "MEAN_MOTION_DDOT": 0}, "tle": {"line1": "1 66650U 25274A   25336.01929771  .00002600  00000+0  26444-3 0  9998", "line2": "2 66650  97.7378 263.4050 0010478 292.6464  67.3646 14.91599451   807"}}, "geometry": {"type": "Point", "coordinates": [86.38317871151058, 18.14322071214901]}}, {"type": "Feature", "properties": {"norad_id": 66651, "name": "2025-274B", "group": "last-30-days", "lat": 16.988677356973714, "lon": 86.21016802909911, "alt_km": 597.9770824818261, "timestamp": "2025-12-02T10:50:46.053996+00:00", "meta": {"OBJECT_NAME": "2025-274B", "OBJECT_ID": "2025-274B", "EPOCH": "2025-12-01T18:01:06.913344", "MEAN_MOTION": 14.91660542, "ECCENTRICITY": 0.0010821, "INCLINATION": 97.7371, "RA_OF_ASC_NODE": 263.1416, "ARG_OF_PERICENTER": 293.1712, "MEAN_ANOMALY": 66.8366, "EPHEMERIS_TYPE": 0, "CLASSIFICATION_TYPE": "U", "NORAD_CAT_ID": 66651, "ELEMENT_SET_NO": 999, "REV_AT_EPOCH": 76, "BSTAR": 0.00042597, "MEAN_MOTION_DOT": 4.231e-05, "MEAN_MOTION_DDOT": 0}, "tle": {"line1": "1 66651U 25274B   25335.75077446  .00004231  00000+0  42597-3 0  9991", "line2": "2 66651  97.7371 263.1416 0010821 293.1712  66.8366 14.91660542   766"}}, "geometry": {"type": "Point", "coordinates": [86.21016802909911, 16.988677356973714]}}, {"type": "Feature", "properties": {"norad_id": 66652, "name": "2025-274C", "group": "last-30-days", "lat": 13.873706455017114, "lon": 85.7558536434786, "alt_km": 598.2222693479926, "timestamp": "2025-12-02T10:50:46.054007+00:00", "meta": {"OBJECT_NAME": "2025-274C", "OBJECT_ID": "2025-274C", "EPOCH": "2025-12-02T02:03:18.597024", "MEAN_MOTION": 14.91812766, "ECCENTRICITY": 0.0010567, "INCLINATION": 97.7378, "RA_OF_ASC_NODE": 263.4718, "ARG_OF_PERICENTER": 298.6241, "MEAN_ANOMALY": 61.3915, "EPHEMERIS_TYPE": 0, "CLASSIFICATION_TYPE": "U", "NORAD_CAT_ID": 66652, "ELEMENT_SET_NO": 999, "REV_AT_EPOCH": 81, "BSTAR": 0.00035521, "MEAN_MOTION_DOT": 3.532e-05, "MEAN_MOTION_DDOT": 0}, "tle": {"line1": "1 66652U 25274C   25336.08563191  .00003532  00000+0  35521-3 0  9998", "line2": "2 66652  97.7378 263.4718 0010567 298.6241  61.3915 14.91812766   819"}}, "geometry": {"type": "Point", "coordinates": [85.7558536434786, 13.873706455017114]}}, {"type": "Feature", "properties": {"norad_id": 66653, "name": "2025-274D", "group": "last-30-days", "lat": 13.704581416737934, "lon": 85.73074943389928, "alt_km": 598.1203673970167, "timestamp": "2025-12-02T10:50:46.054016+00:00", "meta": {"OBJECT_NAME": "2025-274D", "OBJECT_ID": "2025-274D", "EPOCH": "2025-12-02T02:03:15.458112", "MEAN_MOTION": 14.91817003, "ECCENTRICITY": 0.0011474, "INCLINATION": 97.7373, "RA_OF_ASC_NODE": 263.4712, "ARG_OF_PERICENTER": 293.8442, "MEAN_ANOMALY": 66.1574, "EPHEMERIS_TYPE": 0, "CLASSIFICATION_TYPE": "U", "NORAD_CAT_ID": 66653, "ELEMENT_SET_NO": 999, "REV_AT_EPOCH": 81, "BSTAR": 0.0001608, "MEAN_MOTION_DOT": 1.568e-05, "MEAN_MOTION_DDOT": 0}, "tle": {"line1": "1 66653U 25274D   25336.08559558  .00001568  00000+0  16080-3 0  9997", "line2": "2 66653  97.7373 263.4712 0011474 293.8442  66.1574 14.91817003   810"}}, "geometry": {"type": "Point", "coordinates": [85.73074943389928, 13.704581416737934]}}, {"type": "Feature", "properties": {"norad_id": 66654, "name": "JACK E", "group": "last-30-days", "lat": 10.411934608323056, "lon": 85.26458440846982, "alt_km": 598.1067948504533, "timestamp": "2025-12-02T10:50:46.054030+00:00", "meta": {"OBJECT_NAME": "JACK E", "OBJECT_ID": "2025-274E", "EPOCH": "2025-12-02T02:02:25.385856", "MEAN_MOTION": 14.91983333, "ECCENTRICITY": 0.0011923, "INCLINATION": 97.7378, "RA_OF_ASC_NODE": 263.4727, "ARG_OF_PERICENTER": 295.7238, "MEAN_ANOMALY": 64.275, "EPHEMERIS_TYPE": 0, "CLASSIFICATION_TYPE": "U", "NORAD_CAT_ID": 66654, "ELEMENT_SET_NO": 999, "REV_AT_EPOCH": 81, "BSTAR": 0.00040487, "MEAN_MOTION_DOT": 4.052e-05, "MEAN_MOTION_DDOT": 0}, "tle": {"line1": "1 66654U 25274E   25336.08501604  .00004052  00000+0  40487-3 0  9996", "line2": "2 66654  97.7378 263.4727 0011923 295.7238  64.2750 14.91983333   810"}}, "geometry": {"type": "Point", "coordinates": [85.26458440846982, 10.411934608323056]}}, {"type": "Feature", "properties": {"norad_id": 66655, "name": "2025-274F", "group": "last-30-days", "lat": 7.765499107206882, "lon": 84.8961355183722, "alt_km": 597.8888490395047, "timestamp": "2025-12-02T10:50:46.054040+00:00", "meta": {"OBJECT_NAME": "2025-274F", "OBJECT_ID": "2025-274F", "EPOCH": "2025-12-02T02:01:49.412352", "MEAN_MOTION": 14.92208198, "ECCENTRICITY": 0.0007966, "INCLINATION": 97.7352, "RA_OF_ASC_NODE": 263.4734, "ARG_OF_PERICENTER": 324.6108, "MEAN_ANOMALY": 35.4582, "EPHEMERIS_TYPE": 0, "CLASSIFICATION_TYPE": "U", "NORAD_CAT_ID": 66655, "ELEMENT_SET_NO": 999, "REV_AT_EPOCH": 81, "BSTAR": 0.00040158, "MEAN_MOTION_DOT": 4.039e-05, "MEAN_MOTION_DDOT": 0}, "tle": {"line1": "1 66655U 25274F   25336.08459968  .00004039  00000+0  40158-3 0  9992", "line2": "2 66655  97.7352 263.4734 0007966 324.6108  35.4582 14.92208198   814"}}, "geometry": {"type": "Point", "coordinates": [84.8961355183722, 7.765499107206882]}}, {"type": "Feature", "properties": {"norad_id": 66656, "name": "2025-274G", "group": "last-30-days", "lat": 6.751299016799572, "lon": 84.75656036624936, "alt_km": 598.1034551390503, "timestamp": "2025-12-02T10:50:46.054050+00:00", "meta": {"OBJECT_NAME": "2025-274G", "OBJECT_ID": "2025-274G", "EPOCH": "2025-12-01T17:58:40.345248", "MEAN_MOTION": 14.92160082, "ECCENTRICITY": 0.0012613, "INCLINATION": 97.7374, "RA_OF_ASC_NODE": 263.1441, "ARG_OF_PERICENTER": 298.549, "MEAN_ANOMALY": 61.4459, "EPHEMERIS_TYPE": 0, "CLASSIFICATION_TYPE": "U", "NORAD_CAT_ID": 66656, "ELEMENT_SET_NO": 999, "REV_AT_EPOCH": 76, "BSTAR": 0.00039914, "MEAN_MOTION_DOT": 4.012e-05, "MEAN_MOTION_DDOT": 0}, "tle": {"line1": "1 66656U 25274G   25335.74907807  .00004012  00000+0  39914-3 0  9994", "line2": "2 66656  97.7374 263.1441 0012613 298.5490  61.4459 14.92160082   764"}}, "geometry": {"type": "Point", "coordinates": [84.75656036624936, 6.751299016799572]}}, {"type": "Feature", "properties": {"norad_id": 66657, "name": "SPIRONE", "group": "last-30-days", "lat": 3.0493520750626146, "lon": 84.25065568746442, "alt_km": 599.1346482051194, "timestamp": "2025-12-02T10:50:46.054060+00:00", "meta": {"OBJECT_NAME": "SPIRONE", "OBJECT_ID": "2025-274H", "EPOCH": "2025-12-01T17:57:48.824064", "MEAN_MOTION": 14.92340933, "ECCENTRICITY": 0.001125, "INCLINATION": 97.7371, "RA_OF_ASC_NODE": 263.1447, "ARG_OF_PERICENTER": 317.7398, "MEAN_ANOMALY": 42.2953, "EPHEMERIS_TYPE": 0, "CLASSIFICATION_TYPE": "U", "NORAD_CAT_ID": 66657, "ELEMENT_SET_NO": 999, "REV_AT_EPOCH": 76, "BSTAR": 0.00040931, "MEAN_MOTION_DOT": 4.134e-05, "MEAN_MOTION_DDOT": 0}, "tle": {"line1": "1 66657U 25274H   25335.74848176  .00004134  00000+0  40931-3 0  9994", "line2": "2 66657  97.7371 263.1447 0011250 317.7398  42.2953 14.92340933   766"}}, "geometry": {"type": "Point", "coordinates": [84.25065568746442, 3.0493520750626146]}}, {"type": "Feature", "properties": {"norad_id": 66658, "name": "2025-274J", "group": "last-30-days", "lat": -0.5648159343887146, "lon": 83.76046984194906, "alt_km": 599.288034401513, "timestamp": "2025-12-02T10:50:46.054070+00:00", "meta": {"OBJECT_NAME": "2025-274J", "OBJECT_ID": "2025-274J", "EPOCH": "2025-12-01T17:56:57.132672", "MEAN_MOTION": 14.92515678, "ECCENTRICITY": 0.0011882, "INCLINATION": 97.7372, "RA_OF_ASC_NODE": 263.1455, "ARG_OF_PERICENTER": 320.2054, "MEAN_ANOMALY": 39.8293, "EPHEMERIS_TYPE": 0, "CLASSIFICATION_TYPE": "U", "NORAD_CAT_ID": 66658, "ELEMENT_SET_NO": 999, "REV_AT_EPOCH": 76, "BSTAR": 0.00036543, "MEAN_MOTION_DOT": 3.701e-05, "MEAN_MOTION_DDOT": 0}, "tle": {"line1": "1 66658U 25274J   25335.74788348  .00003701  00000+0  36543-3 0  9992", "line2": "2 66658  97.7372 263.1455 0011882 320.2054  39.8293 14.92515678   765"}}, "geometry": {"type": "Point", "coordinates": [83.76046984194906, -0.5648159343887146]}}]}